[
    {
        "Altitude(m)": 622205.8402667791,
        "Argument of Periapsis(deg)": 0.0,
        "Eccentricity": 0.0,
        "Inclination(deg)": 60.0,
        "Latitude(deg)": -52.16236027722166,
        "Longitude(deg)": 142.70031318710403,
        "Mean Anomaly(deg)": 245.4545,
        "RAAN(deg)": 15.0,
        "Satellite Name": "Test1 81",
        "Satellite Number": 81,
        "Semi-Major Axis(m)": 6980739.136638005,
        "Time(s)": 0
    },
    {
        "Altitude(m)": 622344.7472112229,
        "Argument of Periapsis(deg)": 0.00010418945913296404,
        "Eccentricity": 0.0,
        "Inclination(deg)": 60.0,
        "Latitude(deg)": -52.51994074871505,
        "Longitude(deg)": 143.48152317499466,
        "Mean Anomaly(deg)": 246.07460614546184,
        "RAAN(deg)": 14.999579950860259,
        "Satellite Name": "Test1 81",
        "Satellite Number": 81,
        "Semi-Major Axis(m)": 6980739.136638005,
        "Time(s)": 10
    },
    {
        "Altitude(m)": 622480.8105146041,
        "Argument of Periapsis(deg)": 0.0002083789182659281,
        "Eccentricity": 0.0,
        "Inclination(deg)": 60.0,
        "Latitude(deg)": -52.87168463861938,
        "Longitude(deg)": 144.27606527158866,
        "Mean Anomaly(deg)": 246.69471229092363,
        "RAAN(deg)": 14.999159901720514,
        "Satellite Name": "Test1 81",
        "Satellite Number": 81,
        "Semi-Major Axis(m)": 6980739.136638005,
        "Time(s)": 20
    },
    {
        "Altitude(m)": 622613.9769453794,
        "Argument of Periapsis(deg)": 0.00031256837739889213,
        "Eccentricity": 0.0,
        "Inclination(deg)": 60.0,
        "Latitude(deg)": -53.21742408647016,
        "Longitude(deg)": 145.0841004466729,
        "Mean Anomaly(deg)": 247.31481843638548,
        "RAAN(deg)": 14.99873985258077,
        "Satellite Name": "Test1 81",
        "Satellite Number": 81,
        "Semi-Major Axis(m)": 6980739.136638005,
        "Time(s)": 30
    },
    {
        "Altitude(m)": 622744.194382238,
        "Argument of Periapsis(deg)": 0.0004167578365318562,
        "Eccentricity": 0.0,
        "Inclination(deg)": 60.0,
        "Latitude(deg)": -53.5569878248935,
        "Longitude(deg)": 145.90577804701485,
        "Mean Anomaly(deg)": 247.9349245818473,
        "RAAN(deg)": 14.998319803441028,
        "Satellite Name": "Test1 81",
        "Satellite Number": 81,
        "Semi-Major Axis(m)": 6980739.136638005,
        "Time(s)": 40
    },
    {
        "Altitude(m)": 622871.4118363394,
        "Argument of Periapsis(deg)": 0.0005209472956648203,
        "Eccentricity": 0.0,
        "Inclination(deg)": 60.0,
        "Latitude(deg)": -53.89020130236138,
        "Longitude(deg)": 146.74123339987418,
        "Mean Anomaly(deg)": 248.55503072730914,
        "RAAN(deg)": 14.997899754301287,
        "Satellite Name": "Test1 81",
        "Satellite Number": 81,
        "Semi-Major Axis(m)": 6980739.136638005,
        "Time(s)": 50
    },
    {
        "Altitude(m)": 622995.5794730507,
        "Argument of Periapsis(deg)": 0.0006251367547977843,
        "Eccentricity": 0.0,
        "Inclination(deg)": 60.0,
        "Latitude(deg)": -54.21688682993381,
        "Longitude(deg)": 147.59058686577657,
        "Mean Anomaly(deg)": 249.17513687277093,
        "RAAN(deg)": 14.997479705161544,
        "Satellite Name": "Test1 81",
        "Satellite Number": 81,
        "Semi-Major Axis(m)": 6980739.136638005,
        "Time(s)": 60
    },
    {
        "Altitude(m)": 623116.6486331957,
        "Argument of Periapsis(deg)": 0.0007293262139307483,
        "Eccentricity": 0.0,
        "Inclination(deg)": 60.0,
        "Latitude(deg)": -54.53686375360298,
        "Longitude(deg)": 148.45394283204493,
        "Mean Anomaly(deg)": 249.79524301823278,
        "RAAN(deg)": 14.997059656021802,
        "Satellite Name": "Test1 81",
        "Satellite Number": 81,
        "Semi-Major Axis(m)": 6980739.136638005,
        "Time(s)": 70
    },
    {
        "Altitude(m)": 623234.5718537647,
        "Argument of Periapsis(deg)": 0.0008335156730637124,
        "Eccentricity": 0.0,
        "Inclination(deg)": 60.0,
        "Latitude(deg)": -54.84994865380851,
        "Longitude(deg)": 149.33138713985792,
        "Mean Anomaly(deg)": 250.4153491636946,
        "RAAN(deg)": 14.996639606882056,
        "Satellite Name": "Test1 81",
        "Satellite Number": 81,
        "Semi-Major Axis(m)": 6980739.136638005,
        "Time(s)": 80
    },
    {
        "Altitude(m)": 623349.3028881308,
        "Argument of Periapsis(deg)": 0.0009377051321966765,
        "Eccentricity": 0.0,
        "Inclination(deg)": 60.0,
        "Latitude(deg)": -55.155955573635815,
        "Longitude(deg)": 150.22298597763074,
        "Mean Anomaly(deg)": 251.03545530915648,
        "RAAN(deg)": 14.996219557742315,
        "Satellite Name": "Test1 81",
        "Satellite Number": 81,
        "Semi-Major Axis(m)": 6980739.136638005,
        "Time(s)": 90
    },
    {
        "Altitude(m)": 623460.7967256925,
        "Argument of Periapsis(deg)": 0.0010418945913296407,
        "Eccentricity": 0.0,
        "Inclination(deg)": 60.0,
        "Latitude(deg)": -55.45469627710136,
        "Longitude(deg)": 151.1287847364023,
        "Mean Anomaly(deg)": 251.65556145461832,
        "RAAN(deg)": 14.995799508602571,
        "Satellite Name": "Test1 81",
        "Satellite Number": 81,
        "Semi-Major Axis(m)": 6980739.136638005,
        "Time(s)": 100
    },
    {
        "Altitude(m)": 623569.009611036,
        "Argument of Periapsis(deg)": 0.0011460840504626045,
        "Eccentricity": 0.0,
        "Inclination(deg)": 60.0,
        "Latitude(deg)": -55.74598053879626,
        "Longitude(deg)": 152.04880532451048,
        "Mean Anomaly(deg)": 252.2756676000801,
        "RAAN(deg)": 14.99537945946283,
        "Satellite Name": "Test1 81",
        "Satellite Number": 81,
        "Semi-Major Axis(m)": 6980739.136638005,
        "Time(s)": 110
    },
    {
        "Altitude(m)": 623673.8990624876,
        "Argument of Periapsis(deg)": 0.0012502735095955685,
        "Eccentricity": 0.0,
        "Inclination(deg)": 60.0,
        "Latitude(deg)": -56.02961646599811,
        "Longitude(deg)": 152.98304497913134,
        "Mean Anomaly(deg)": 252.89577374554196,
        "RAAN(deg)": 14.994959410323089,
        "Satellite Name": "Test1 81",
        "Satellite Number": 81,
        "Semi-Major Axis(m)": 6980739.136638005,
        "Time(s)": 120
    },
    {
        "Altitude(m)": 623775.423890182,
        "Argument of Periapsis(deg)": 0.0013544629687285324,
        "Eccentricity": 0.0,
        "Inclination(deg)": 60.0,
        "Latitude(deg)": -56.30541085414417,
        "Longitude(deg)": 153.9314750753647,
        "Mean Anomaly(deg)": 253.51587989100378,
        "RAAN(deg)": 14.994539361183342,
        "Satellite Name": "Test1 81",
        "Satellite Number": 81,
        "Semi-Major Axis(m)": 6980739.136638005,
        "Time(s)": 130
    },
    {
        "Altitude(m)": 623873.5442135086,
        "Argument of Periapsis(deg)": 0.0014586524278614966,
        "Eccentricity": 0.0,
        "Inclination(deg)": 60.0,
        "Latitude(deg)": -56.57316957630856,
        "Longitude(deg)": 154.894038435299,
        "Mean Anomaly(deg)": 254.13598603646562,
        "RAAN(deg)": 14.994119312043603,
        "Satellite Name": "Test1 81",
        "Satellite Number": 81,
        "Semi-Major Axis(m)": 6980739.136638005,
        "Time(s)": 140
    },
    {
        "Altitude(m)": 623968.2214780455,
        "Argument of Periapsis(deg)": 0.0015628418869944607,
        "Eccentricity": 0.0,
        "Inclination(deg)": 60.0,
        "Latitude(deg)": -56.832698007038914,
        "Longitude(deg)": 155.8706481798345,
        "Mean Anomaly(deg)": 254.75609218192741,
        "RAAN(deg)": 14.993699262903858,
        "Satellite Name": "Test1 81",
        "Satellite Number": 81,
        "Semi-Major Axis(m)": 6980739.136638005,
        "Time(s)": 150
    },
    {
        "Altitude(m)": 624059.418471887,
        "Argument of Periapsis(deg)": 0.0016670313461274247,
        "Eccentricity": 0.0,
        "Inclination(deg)": 60.0,
        "Latitude(deg)": -57.08380148056277,
        "Longitude(deg)": 156.86118662910943,
        "Mean Anomaly(deg)": 255.37619832738926,
        "RAAN(deg)": 14.993279213764117,
        "Satellite Name": "Test1 81",
        "Satellite Number": 81,
        "Semi-Major Axis(m)": 6980739.136638005,
        "Time(s)": 160
    },
    {
        "Altitude(m)": 624147.0993414053,
        "Argument of Periapsis(deg)": 0.0017712208052603888,
        "Eccentricity": 0.0,
        "Inclination(deg)": 60.0,
        "Latitude(deg)": -57.32628578299092,
        "Longitude(deg)": 157.86550275894814,
        "Mean Anomaly(deg)": 255.99630447285108,
        "RAAN(deg)": 14.992859164624372,
        "Satellite Name": "Test1 81",
        "Satellite Number": 81,
        "Semi-Major Axis(m)": 6980739.136638005,
        "Time(s)": 170
    },
    {
        "Altitude(m)": 624231.229606428,
        "Argument of Periapsis(deg)": 0.001875410264393353,
        "Eccentricity": 0.0,
        "Inclination(deg)": 60.0,
        "Latitude(deg)": -57.559957677728,
        "Longitude(deg)": 158.8834112607848,
        "Mean Anomaly(deg)": 256.6164106183129,
        "RAAN(deg)": 14.99243911548463,
        "Satellite Name": "Test1 81",
        "Satellite Number": 81,
        "Semi-Major Axis(m)": 6980739.136638005,
        "Time(s)": 180
    },
    {
        "Altitude(m)": 624311.7761748461,
        "Argument of Periapsis(deg)": 0.0019795997235263173,
        "Eccentricity": 0.0,
        "Inclination(deg)": 60.0,
        "Latitude(deg)": -57.7846254628275,
        "Longitude(deg)": 159.91469171510997,
        "Mean Anomaly(deg)": 257.2365167637747,
        "RAAN(deg)": 14.992019066344888,
        "Satellite Name": "Test1 81",
        "Satellite Number": 81,
        "Semi-Major Axis(m)": 6980739.136638005,
        "Time(s)": 190
    }
]